H1 CPF 01  gfz 2022 05 27 12  6472 tandemx   
H2 1003001  6202 36605    2022 05 27 12 59 42 2022 06 01 00 00 42   120 1 1  0 0 0
H9
10 0 59728  72702.000000  0    1448937.949    120903.071  -6740500.572
10 0 59728  72822.000000  0    2177086.539   -397703.131  -6530655.554
10 0 59728  72942.000000  0    2858400.170   -921752.853  -6206877.796
10 0 59728  73062.000000  0    3481036.458  -1441235.113  -5774744.997
10 0 59728  73182.000000  0    4034320.133  -1946003.598  -5241716.358
10 0 59728  73302.000000  0    4508929.698  -2425972.361  -4617015.856
10 0 59728  73422.000000  0    4897059.986  -2871316.207  -3911483.188
10 0 59728  73542.000000  0    5192557.894  -3272671.269  -3137395.650
10 0 59728  73662.000000  0    5391029.489  -3621332.220  -2308261.841
10 0 59728  73782.000000  0    5489913.987  -3909441.402  -1438588.974
10 0 59728  73902.000000  0    5488522.100  -4130165.369   -543628.984
10 0 59728  74022.000000  0    5388037.664  -4277854.191    360892.796
10 0 59728  74142.000000  0    5191481.479  -4348179.441   1259061.109
10 0 59728  74262.000000  0    4903636.509  -4338245.916   2135059.932
10 0 59728  74382.000000  0    4530937.727  -4246673.414   2973460.057
10 0 59728  74502.000000  0    4081329.673  -4073647.562   3759497.990
10 0 59728  74622.000000  0    3564095.482  -3820939.637   4479341.816
10 0 59728  74742.000000  0    2989660.054  -3491893.255   5120338.169
10 0 59728  74862.000000  0    2369374.892  -3091378.600   5671234.070
10 0 59728  74982.000000  0    1715289.044  -2625716.639   6122372.410
10 0 59728  75102.000000  0    1039910.512  -2102574.667   6465855.718
10 0 59728  75222.000000  0     355964.645  -1530836.506   6695678.299
10 0 59728  75342.000000  0    -323846.603   -920449.080   6807825.420
10 0 59728  75462.000000  0    -987079.923   -282247.595   6800338.760
10 0 59728  75582.000000  0   -1621777.403    372236.797   6673348.227
10 0 59728  75702.000000  0   -2216681.442   1030984.921   6429069.863
10 0 59728  75822.000000  0   -2761434.469   1681709.418   6071769.668
10 0 59728  75942.000000  0   -3246760.423   2312083.268   5607693.959
10 0 59728  76062.000000  0   -3664625.955   2909974.204   5044966.907
10 0 59728  76182.000000  0   -4008378.014   3463680.446   4393453.859
10 0 59728  76302.000000  0   -4272854.897   3962162.952   3664593.345
10 0 59728  76422.000000  0   -4454468.710   4395270.180   2871199.240
10 0 59728  76542.000000  0   -4551255.863   4753949.868   2027234.933
10 0 59728  76662.000000  0   -4562894.041   5030442.059   1147564.023
10 0 59728  76782.000000  0   -4490686.555   5218447.675    247682.864
10 0 59728  76902.000000  0   -4337514.405   5313270.149   -656559.580
10 0 59728  77022.000000  0   -4107755.494   5311926.522  -1549251.390
10 0 59728  77142.000000  0   -3807171.374   5213220.073  -2414707.574
10 0 59728  77262.000000  0   -3442768.223   5017778.970  -3237752.022
10 0 59728  77382.000000  0   -3022634.231   4728056.175  -4003988.287
10 0 59728  77502.000000  0   -2555758.752   4348292.741  -4700050.487
10 0 59728  77622.000000  0   -2051838.315   3884447.573  -5313830.953
10 0 59728  77742.000000  0   -1521074.999   3344096.850  -5834682.933
10 0 59728  77862.000000  0    -973970.065   2736302.910  -6253596.536
10 0 59728  77982.000000  0    -421117.246   2071456.017  -6563343.350
10 0 59728  78102.000000  0     126999.207   1361094.392  -6758589.178
10 0 59728  78222.000000  0     660198.215    617704.806  -6835976.580
10 0 59728  78342.000000  0    1168786.729   -145493.064  -6794177.131
10 0 59728  78462.000000  0    1643731.902   -914777.378  -6633910.809
10 0 59728  78582.000000  0    2076817.028  -1676164.309  -6357933.897
10 0 59728  78702.000000  0    2460781.376  -2415655.460  -5970997.089
10 0 59728  78822.000000  0    2789441.345  -3119489.872  -5479773.692
10 0 59728  78942.000000  0    3057792.449  -3774399.956  -4892756.416
10 0 59728  79062.000000  0    3262087.786  -4367862.896  -4220119.426
10 0 59728  79182.000000  0    3399891.570  -4888341.898  -3473552.497
10 0 59728  79302.000000  0    3470109.144  -5325516.748  -2666068.198
10 0 59728  79422.000000  0    3472990.233  -5670497.658  -1811780.065
10 0 59728  79542.000000  0    3410104.880  -5916013.780   -925656.971
10 0 59728  79662.000000  0    3284292.502  -6056573.991    -23257.947
10 0 59728  79782.000000  0    3099583.171  -6088592.800    879547.517
10 0 59728  79902.000000  0    2861095.043  -6010479.827   1766865.792
10 0 59728  80022.000000  0    2574909.570  -5822688.692   2623069.540
10 0 59728  80142.000000  0    2247926.304  -5527722.863   3433081.263
10 0 59728  80262.000000  0    1887703.084  -5130101.143   4182644.217
10 0 59728  80382.000000  0    1502285.436  -4636283.804   4858577.454
10 0 59728  80502.000000  0    1100030.031  -4054560.275   5449008.804
10 0 59728  80622.000000  0     689424.718  -3394901.374   5943583.399
10 0 59728  80742.000000  0     278909.815  -2668778.681   6333640.121
10 0 59728  80862.000000  0    -123293.969  -1888958.794   6612356.228
10 0 59728  80982.000000  0    -509348.207  -1069275.595   6774860.319
10 0 59728  81102.000000  0    -871948.159   -224383.234   6818313.651
10 0 59728  81222.000000  0   -1204460.002    630506.956   6741956.894
10 0 59728  81342.000000  0   -1501041.788   1479900.105   6547122.208
10 0 59728  81462.000000  0   -1756745.987   2308297.831   6237211.384
10 0 59728  81582.000000  0   -1967602.698   3100480.990   5817640.198
10 0 59728  81702.000000  0   -2130681.597   3841790.580   5295748.806
10 0 59728  81822.000000  0   -2244132.254   4518402.535   4680680.396
10 0 59728  81942.000000  0   -2307202.145   5117592.168   3983226.592
10 0 59728  82062.000000  0   -2320231.227   5627981.760   3215641.714
10 0 59728  82182.000000  0   -2284623.210   6039765.128   2391427.823
10 0 59728  82302.000000  0   -2202793.987   6344904.232   1525095.563
10 0 59728  82422.000000  0   -2078097.946   6537293.431    631904.092
10 0 59728  82542.000000  0   -1914734.080   6612886.494   -272414.380
10 0 59728  82662.000000  0   -1717634.656   6569783.487  -1171940.125
10 0 59728  82782.000000  0   -1492338.329   6408274.481  -2050857.664
10 0 59728  82902.000000  0   -1244850.553   6130834.000  -2893743.200
10 0 59728  83022.000000  0    -981497.191   5742072.926  -3685838.159
10 0 59728  83142.000000  0    -708774.690   5248651.423  -4413308.197
10 0 59728  83262.000000  0    -433200.282   4659152.430  -5063482.409
10 0 59728  83382.000000  0    -161165.231   3983921.361  -5625067.889
10 0 59728  83502.000000  0     101205.724   3234874.751  -6088338.024
10 0 59728  83622.000000  0     348185.183   2425281.743  -6445290.237
10 0 59728  83742.000000  0     574561.217   1569525.444  -6689771.948
10 0 59728  83862.000000  0     775742.039    682848.326  -6817576.731
10 0 59728  83982.000000  0     947844.861   -218915.897  -6826508.808
10 0 59728  84102.000000  0    1087767.883  -1119619.742  -6716416.232
10 0 59728  84222.000000  0    1193244.357  -2003083.602  -6489191.425
10 0 59728  84342.000000  0    1262878.715  -2853377.810  -6148742.585
10 0 59728  84462.000000  0    1296164.662  -3655104.785  -5700935.935
10 0 59728  84582.000000  0    1293482.963  -4393677.590  -5153504.672
10 0 59728  84702.000000  0    1256080.996  -5055586.206  -4515925.557
10 0 59728  84822.000000  0    1186033.372  -5628649.789  -3799266.904
10 0 59728  84942.000000  0    1086183.288  -6102250.111  -3016005.650
10 0 59728  85062.000000  0     960066.754  -6467539.227  -2179816.729
10 0 59728  85182.000000  0     811821.027  -6717617.554  -1305337.449
10 0 59728  85302.000000  0     646078.260  -6847676.342   -407909.836
10 0 59728  85422.000000  0     467847.279  -6855099.556    496693.195
10 0 59728  85542.000000  0     282386.592  -6739523.335   1392551.616
10 0 59728  85662.000000  0      95071.708  -6502851.018   2263887.293
10 0 59728  85782.000000  0     -88739.871  -6149221.724   3095352.117
10 0 59728  85902.000000  0    -263842.458  -5684931.562   3872307.073
10 0 59728  86022.000000  0    -425311.689  -5118312.726   4581083.628
10 0 59728  86142.000000  0    -568625.847  -4459575.015   5209226.626
10 0 59728  86262.000000  0    -689776.040  -3720611.988   5745712.561
10 0 59728  86382.000000  0    -785363.283  -2914776.309   6181141.053
10 0 59729    102.000000  0    -852680.107  -2056629.269   6507893.083
10 0 59729    222.000000  0    -889775.200  -1161673.738   6720256.726
10 0 59729    342.000000  0    -895500.639   -246072.322   6814522.457
10 0 59729    462.000000  0    -869541.021    673645.670   6789044.436
10 0 59729    582.000000  0    -812422.433   1580882.466   6644267.524
10 0 59729    702.000000  0    -725501.597   2459270.951   6382719.848
10 0 59729    822.000000  0    -610936.020   3292969.786   6008971.404
10 0 59729    942.000000  0    -471635.768   4066950.801   5529559.071
10 0 59729   1062.000000  0    -311197.229   4767273.250   4952877.569
10 0 59729   1182.000000  0    -133820.047   5381341.601   4289039.264
10 0 59729   1302.000000  0      55791.653   5898140.487   3549699.482
10 0 59729   1422.000000  0     252540.363   6308439.635   2747857.110
10 0 59729   1542.000000  0     451057.576   6604974.630   1897626.128
10 0 59729   1662.000000  0     645835.659   6782583.040   1013979.970
10 0 59729   1782.000000  0     831363.677   6838299.532    112481.769
10 0 59729   1902.000000  0    1002265.218   6771407.810   -790997.862
10 0 59729   2022.000000  0    1153433.097   6583446.681  -1680569.028
10 0 59729   2142.000000  0    1280157.859   6278171.619  -2540609.407
10 0 59729   2262.000000  0    1378247.505   5861472.743  -3356044.720
10 0 59729   2382.000000  0    1444135.617   5341250.987  -4112616.477
10 0 59729   2502.000000  0    1474975.315   4727256.203  -4797131.325
10 0 59729   2622.000000  0    1468716.675   4030891.917  -5397686.556
10 0 59729   2742.000000  0    1424165.989   3264993.796  -5903868.967
99
